{
   "type": "FeatureCollection",
   "features": [
   {
    "type": "Feature",
    "geometry": {
       "type": "Point",
       "coordinates":  [ 120.324544, 22.604549 ]
    },
    "properties": {
    "id":"C1",
    "name":"籬仔內",
    "line":"綠線",
    "zipcode":82060,
    "address":"高雄市前鎮區瑞隆路與凱旋四路路口"
    }
  },
  {
    "type": "Feature",
    "geometry": {
       "type": "Point",
       "coordinates":  [ 120.319620, 22.599427 ]
    },
    "properties": {
    "id":"C2",
    "name":"凱旋瑞田",
    "line":"綠線",
    "zipcode":82060,
    "address":"高雄市前鎮區凱旋四路與瑞田路口"
    }
  },
  {
    "type": "Feature",
    "geometry": {
       "type": "Point",
       "coordinates":  [ 120.315601, 22.595480 ]
    },
    "properties": {
    "id":"C3",
    "name":"前鎮之星",
    "line":"綠線",
    "zipcode":82060,
    "address":"高雄市前鎮區中山三路與凱旋四路路口"
    }
  },
  {
    "type": "Feature",
    "geometry": {
       "type": "Point",
       "coordinates":  [ 120.310729, 22.593979 ]
    },
    "properties": {
    "id":"C4",
    "name":"凱旋中華",
    "line":"綠線",
    "zipcode":82060,
    "address":"高雄市前鎮區中華五路與凱旋四路路口"
    }
  },
  {
    "type": "Feature",
    "geometry": {
       "type": "Point",
       "coordinates":  [ 120.304955,22.594850 ]
    },
    "properties": {
    "id":"C5",
    "name":"夢時代",
    "line":"綠線",
    "zipcode":82060,
    "address":"高雄市前鎮區成功二路與時代大道路口"
    }
  },
  {
    "type": "Feature",
    "geometry": {
       "type": "Point",
       "coordinates":  [ 120.302568,22.600976 ]
    },
    "properties": {
    "id":"C6",
    "name":"經貿園區",
    "line":"綠線",
    "zipcode":82060,
    "address":"高雄市前鎮區成功二路與正勤路路口南側"
    }
  },
  {
    "type": "Feature",
    "geometry": {
       "type": "Point",
       "coordinates":  [ 120.300773,22.605707 ]
    },
    "properties": {
    "id":"C7",
    "name":"軟體園區",
    "line":"綠線",
    "zipcode":82060,
    "address":"高雄市前鎮區成功二路與復興三路路口北側"
    }
  },
  {
    "type": "Feature",
    "geometry": {
       "type": "Point",
       "coordinates":  [ 120.297999,22.610181 ]
    },
    "properties": {
    "id":"C8",
    "name":"高雄展覽館",
    "line":"綠線",
    "zipcode":82060,
    "address":"高雄市苓雅區成功二路與新光路路口"
    }
  },
  {
    "type": "Feature",
    "geometry": {
       "type": "Point",
       "coordinates":  [ 120.293429,22.611470 ]
    },
    "properties": {
    "id":"C9",
    "name":"旅運中心",
    "line":"綠線",
    "zipcode":82060,
    "address":"高雄市苓雅區海邊路與苓南前路路口"
    }
  },
  {
    "type": "Feature",
    "geometry": {
       "type": "Point",
       "coordinates":  [ 120.293300,22.616909 ]
    },
    "properties": {
    "id":"C10",
    "name":"光榮碼頭",
    "line":"綠線",
    "zipcode":82060,
    "address":"高雄市苓雅區海邊路與青年二路路口"
    }
  },
  {
    "type": "Feature",
    "geometry": {
       "type": "Point",
       "coordinates":  [ 120.289299,22.619321 ]
    },
    "properties": {
    "id":"C11",
    "name":"真愛碼頭",
    "line":"綠線",
    "zipcode":82060,
    "address":"高雄市鹽埕區公園二路與必忠街路口"
    }
  },
  {
    "type": "Feature",
    "geometry": {
       "type": "Point",
       "coordinates":  [ 120.284045,22.618551 ]
    },
    "properties": {
    "id":"C12",
    "name":"駁二大義",
    "line":"綠線",
    "zipcode":82060,
    "address":"高雄市鹽埕區駁二特區大義街路口"
    }
  },
  {
    "type": "Feature",
    "geometry": {
       "type": "Point",
       "coordinates":  [ 120.279838,22.620443 ]
    },
    "properties": {
    "id":"C13",
    "name":"駁二蓬萊",
    "line":"綠線",
    "zipcode":82060,
    "address":"高雄市鹽埕區駁二特區七賢三路路口"
    }
  },
  {
    "type": "Feature",
    "geometry": {
       "type": "Point",
       "coordinates":  [ 120.276067,22.621919 ]
    },
    "properties": {
    "id":"C14",
    "name":"哈瑪星",
    "line":"綠線",
    "zipcode":82060,
    "address":"高雄市鼓山區鼓山一路與臨海新路路口"
    }
  },
  {
    "type": "Feature",
    "geometry": {
       "type": "Point",
       "coordinates":  [ 120.278557,22.626640 ]
    },
    "properties": {
    "id":"C15",
    "name":"壽山公園",
    "line":"綠線",
    "zipcode":82060,
    "address":"高雄市鼓山區五福四路與新樂街段"
    }
  },
  {
    "type": "Feature",
    "geometry": {
       "type": "Point",
       "coordinates":  [ 120.280695,22.629528 ]
    },
    "properties": {
    "id":"C16",
    "name":"文武聖殿",
    "line":"綠線",
    "zipcode":82060,
    "address":"高雄市鼓山區大公路與鼓山一路口"
    }
  },
  {
    "type": "Feature",
    "geometry": {
       "type": "Point",
       "coordinates":  [ 120.2824264,22.634729 ]
    },
    "properties": {
    "id":"C17",
    "name":"鼓山區公所",
    "line":"綠線",
    "zipcode":82060,
    "address":"高雄市鼓山區興隆路與河川街103巷"
    }
  },
  {
    "type": "Feature",
    "geometry": {
       "type": "Point",
       "coordinates":  [ 120.281018,22.641760 ]
    },
    "properties": {
    "id":"C18",
    "name":"鼓山",
    "line":"綠線",
    "zipcode":82060,
    "address":"高雄市鼓山區鐵路街及鐵路街18巷"
    }
  },
  {
    "type": "Feature",
    "geometry": {
       "type": "Point",
       "coordinates":  [ 120.28137493168877,22.64705084349489 ]
    },
    "properties": {
    "id":"C19",
    "name":"馬卡道",
    "line":"綠線",
    "zipcode":82060,
    "address":"高雄市鼓山區馬卡道路與華安街口"
    }
  },
  {
    "type": "Feature",
    "geometry": {
       "type": "Point",
       "coordinates":  [ 120.28168127434581,22.65215826711059 ]
    },
    "properties": {
    "id":"C20",
    "name":"臺鐵美術館",
    "line":"綠線",
    "zipcode":82060,
    "address":"高雄市鼓山區馬卡道路與青海路口"
    }
  },
  {
    "type": "Feature",
    "geometry": {
       "type": "Point",
       "coordinates":  [ 120.282878453961,22.655012079442752 ]
    },
    "properties": {
    "id":"C21A",
    "name":"內惟藝術中心",
    "line":"綠線",
    "zipcode":82060,
    "address":"馬卡道路與美術館路口"
    }
  },
  {
    "type": "Feature",
    "geometry": {
       "type": "Point",
       "coordinates":  [ 120.28733866843837,22.655017294678753 ]
    },
    "properties": {
    "id":"C21",
    "name":"美術館",
    "line":"綠線",
    "zipcode":82060,
    "address":"美術館路與美術東二路口"
    }
  },
  {
    "type": "Feature",
    "geometry": {
       "type": "Point",
       "coordinates":  [ 120.29089552864787,22.654813314352758 ]
    },
    "properties": {
    "id":"C22",
    "name":"聯合醫院",
    "line":"綠線",
    "zipcode":82060,
    "address":"美術館路與中華一路"
    }
  },
  {
    "type": "Feature",
    "geometry": {
       "type": "Point",
       "coordinates":  [ 120.29510196156342,22.6544469815766 ]
    },
    "properties": {
    "id":"C23",
    "name":"龍華國小",
    "line":"綠線",
    "zipcode":82060,
    "address":"大順一路與龍勝路口"
    }
  },
  {
    "type": "Feature",
    "geometry": {
       "type": "Point",
       "coordinates":  [ 120.30282466187641,22.656039960036566 ]
    },
    "properties": {
    "id":"C24",
    "name":"愛河之心",
    "line":"綠線",
    "zipcode":82060,
    "address":"大順一路與博愛一路口"
    }
  },
    {
    "type": "Feature",
    "geometry": {
       "type": "Point",
       "coordinates":  [ 120.30699,22.65655 ]
    },
    "properties": {
    "id":"C25",
    "name":"新上國小",
    "line":"綠線",
    "zipcode":82060,
    "address":"大順一路與自由一路口"
    }
  },
   {
    "type": "Feature",
    "geometry": {
       "type": "Point",
       "coordinates":  [ 120.3153788,22.6550868 ]
    },
    "properties": {
    "id":"C26",
    "name":"灣仔內",
    "line":"綠線",
    "zipcode":82060,
    "address":"大順一路與民族一路口"
    }
  },
  {
    "type": "Feature",
    "geometry": {
       "type": "Point",
       "coordinates":  [ 120.318505,22.653447 ]
    },
    "properties": {
    "id":"C27",
    "name":"鼎山街",
    "line":"綠線",
    "zipcode":82060,
    "address":"大順二路與鼎山街口"
    }
  }
]
}
